OBJECT_NAME,OBJECT_ID,EPOCH,MEAN_MOTION,ECCENTRICITY,INCLINATION,RA_OF_ASC_NODE,ARG_OF_PERICENTER,MEAN_ANOMALY,EPHEMERIS_TYPE,CLASSIFICATION_TYPE,NORAD_CAT_ID,ELEMENT_SET_NO,REV_AT_EPOCH,BSTAR,MEAN_MOTION_DOT,MEAN_MOTION_DDOT
ALOS-2,2014-029A,2026-07-21T15:09:58.595616,14.79469676,.0001563,97.9230,299.3037,97.2548,262.8841,0,U,39766,999,65667,.10106E-3,.703E-5,0
KAZEOSAT 2,2014-033A,2026-07-21T14:00:04.375008,14.85506377,.00078616,97.5400,40.3757,195.7324,164.3649,0,U,40010,999,65406,.97073819E-4,.788E-5,0
HODOYOSHI-4,2014-033B,2026-07-21T14:16:18.949728,14.88196794,.00232779,97.5467,25.7590,187.8001,172.2858,0,U,40011,999,65392,.92824649E-4,.808E-5,0
DEIMOS-2,2014-033D,2026-07-21T14:44:20.624640,14.93810318,.00015313,97.5785,75.8861,104.1307,256.0084,0,U,40013,999,64286,.13049917E-3,.133E-4,0
HODOYOSHI-3,2014-033F,2026-07-21T09:43:23.690784,14.85445774,.00314954,97.6454,4.0762,240.5294,119.2778,0,U,40015,999,65270,.92046856E-4,.747E-5,0
SPOT 7,2014-034A,2026-07-21T15:08:57.816672,14.60985245,.00016667,98.0607,264.2324,94.9835,265.1556,0,U,40053,999,64216,.11448368E-3,.516E-5,0
SKYSAT-B,2014-037D,2026-07-21T14:53:10.114944,14.88102443,.00060203,98.3858,163.5543,153.0763,207.0765,0,U,40072,999,65108,.10248307E-3,.881E-5,0
WORLDVIEW-3 (WV-3),2014-048A,2026-07-21T14:21:15.925536,14.85070878,.00017623,97.8551,276.9541,146.3604,213.7723,0,U,40115,999,64701,.71369953E-4,.556E-5,0
GAOFEN-2,2014-049A,2026-07-21T15:15:02.347776,14.80933144,.00086162,98.0088,266.8069,116.7316,243.4779,0,U,40118,999,64433,.63385713E-4,.437E-5,0
YAOGAN-21,2014-053A,2026-07-21T15:21:48.968640,15.26817836,.00069392,97.1458,241.4036,344.3313,15.7711,0,U,40143,999,66021,.29464943E-3,.7702E-4,0
YAOGAN-22,2014-063A,2026-07-21T09:48:27.506016,13.15531653,.0006901,100.7771,354.2567,112.5191,247.6651,0,U,40275,999,56431,.4043733E-5,-.45E-6,0
ASNARO,2014-070A,2026-07-21T14:21:21.852576,15.19440414,.00046559,97.3436,277.7857,74.3703,285.8046,0,U,40298,999,64923,.39255395E-3,.8258E-4,0
YAOGAN-24,2014-072A,2026-07-21T15:39:43.590240,14.76122046,.00151098,98.1537,340.2858,149.5498,210.6592,0,U,40310,999,62880,.11671558E-4,.27E-6,0
CBERS 4,2014-079A,2026-07-21T14:37:20.870112,14.35518231,.00005752,98.3509,258.3576,74.6519,285.4730,0,U,40336,999,60889,.13334505E-3,.341E-5,0
YAOGAN-26,2014-088A,2026-07-21T14:05:31.165728,15.48619000,.00010551,97.0660,202.0235,285.4467,74.6668,0,U,40362,999,64302,.3063135E-3,.16279E-3,0
SMAP,2015-003A,2026-07-21T14:37:50.550240,14.63392770,.00016334,98.1287,209.2183,92.4865,267.6524,0,U,40376,999,61265,.64259714E-4,.285E-5,0
KOMPSAT-3A,2015-014A,2026-07-21T14:35:46.849632,15.55709945,.00552983,97.6903,196.5343,53.0211,307.6086,0,U,40536,999,62716,.39253087E-3,.28882E-3,0
SENTINEL-2A,2015-028A,2026-07-21T14:53:14.166240,14.30816331,.00013243,98.5668,276.9811,96.2802,263.8532,0,U,40697,999,57865,.11465198E-3,.257E-5,0
GAOFEN-8,2015-030A,2026-07-21T15:19:10.586208,15.47109471,.00097585,97.6901,38.1059,76.4314,283.8022,0,U,40701,999,61677,.36662058E-3,.18532E-3,0
CARBONITE 1 (CBNT-1),2015-032D,2026-07-21T15:30:23.548896,14.83678072,.00145023,97.6532,19.2744,175.5109,184.6239,0,U,40718,999,59445,.12150582E-3,.954E-5,0
YAOGAN-27,2015-040A,2026-07-21T14:49:56.248896,13.16073392,.00087362,100.1183,187.5096,130.8638,229.3234,0,U,40878,999,52219,.10540349E-2,.358E-5,0
GAOFEN-9 01,2015-047A,2026-07-21T14:38:56.994432,14.82943256,.00279985,97.6263,236.7393,30.1449,330.1369,0,U,40894,999,58529,.92591937E-4,.705E-5,0
YAOGAN-28,2015-064A,2026-07-21T15:30:43.521120,15.27814675,.00119154,97.3114,340.2239,73.1114,287.1431,0,U,41026,999,59594,.2440661E-3,.6569E-4,0
YAOGAN-29,2015-069A,2026-07-21T14:04:09.668928,14.83112090,.00001279,98.0022,231.2717,49.1787,310.9437,0,U,41038,999,57572,.11436526E-3,.878E-5,0
KENT RIDGE 1,2015-077B,2026-07-21T14:33:44.888256,15.23307286,.00082711,14.9808,9.9724,5.2414,354.7994,0,U,41167,999,58635,.85721169E-4,.2858E-4,0
GAOFEN-4,2015-083A,2026-07-21T14:23:34.671840,1.00270335,.0004162,0.4439,83.8614,121.1097,55.9718,0,U,41194,999,3887,0,-.333E-5,0
JASON-3,2016-002A,2026-07-21T13:34:50.060352,12.87628907,.00081301,66.0416,53.5578,270.2651,89.7436,0,U,41240,999,49167,.37414624E-4,-.53E-6,0
SENTINEL-3A,2016-011A,2026-07-21T13:55:27.494976,14.26740972,.00013032,98.6232,269.4668,88.7627,271.3703,0,U,41335,999,54296,.35166003E-4,.41E-6,0
ZIYUAN 3-02 (ZY 3-02),2016-033A,2026-07-21T18:52:45.842016,15.21145198,.0013441,97.3820,277.8957,165.0237,195.1400,0,U,41556,999,56324,.21769E-3,.479E-4,0
CARTOSAT-2C,2016-040A,2026-07-21T15:20:25.121760,15.19297183,.00089449,97.4462,262.1398,24.7765,335.3897,0,U,41599,999,55894,.26659711E-3,.5564E-4,0
