{"epoch":1784710044,"count":18256,"objects":[{"id":"39766","name":"ALOS 2","type":"PAYLOAD","l1":"1 39766U 14029A   26202.63192819  .00000703  00000-0  10106-3 0  9999","l2":"2 39766  97.9230 299.3037 0001563  97.2548 262.8841 14.79469676656676"},{"id":"40010","name":"KAZEOSAT 2","type":"PAYLOAD","l1":"1 40010U 14033A   26202.58338397  .00000788  00000-0  97074-4 0  9998","l2":"2 40010  97.5400  40.3757 0007862 195.7324 164.3649 14.85506377654062"},{"id":"40011","name":"HODOYOSHI 4","type":"PAYLOAD","l1":"1 40011U 14033B   26202.59466377  .00000808  00000-0  92825-4 0  9992","l2":"2 40011  97.5467  25.7590 0023278 187.8001 172.2858 14.88196794653926"},{"id":"40013","name":"DEIMOS 2","type":"PAYLOAD","l1":"1 40013U 14033D   26202.61412760  .00001330  00000-0  13050-3 0  9997","l2":"2 40013  97.5785  75.8861 0001531 104.1307 256.0084 14.93810318642861"},{"id":"40015","name":"HODOYOSHI 3","type":"PAYLOAD","l1":"1 40015U 14033F   26202.40513531  .00000747  00000-0  92047-4 0  9999","l2":"2 40015  97.6454   4.0762 0031495 240.5294 119.2778 14.85445774652708"},{"id":"40053","name":"SPOT 7","type":"PAYLOAD","l1":"1 40053U 14034A   26202.63122473  .00000516  00000-0  11448-3 0  9997","l2":"2 40053  98.0607 264.2324 0001667  94.9835 265.1556 14.60985245642168"},{"id":"40072","name":"SKYSAT 2","type":"PAYLOAD","l1":"1 40072U 14037D   26202.62025596  .00000881  00000-0  10248-3 0  9990","l2":"2 40072  98.3858 163.5543 0006020 153.0763 207.0765 14.88102443651088"},{"id":"40115","name":"WORLDVIEW 3","type":"PAYLOAD","l1":"1 40115U 14048A   26202.59810099  .00000556  00000-0  71370-4 0  9999","l2":"2 40115  97.8551 276.9541 0001762 146.3604 213.7723 14.85070878647013"},{"id":"40118","name":"GAOFEN 2","type":"PAYLOAD","l1":"1 40118U 14049A   26202.63544384  .00000437  00000-0  63386-4 0  9995","l2":"2 40118  98.0088 266.8069 0008616 116.7316 243.4779 14.80933144644335"},{"id":"40143","name":"YAOGAN 21","type":"PAYLOAD","l1":"1 40143U 14053A   26202.64015010  .00007702  00000-0  29465-3 0  9999","l2":"2 40143  97.1458 241.4036 0006939 344.3313  15.7711 15.26817836660210"},{"id":"40275","name":"YAOGAN 22","type":"PAYLOAD","l1":"1 40275U 14063A   26202.40865169 -.00000045  00000-0  40437-5 0  9996","l2":"2 40275 100.7771 354.2567 0006901 112.5191 247.6651 13.15531653564314"},{"id":"40298","name":"ASNARO","type":"PAYLOAD","l1":"1 40298U 14070A   26202.59816959  .00008258  00000-0  39255-3 0  9999","l2":"2 40298  97.3436 277.7857 0004656  74.3703 285.8046 15.19440414649235"},{"id":"40310","name":"YAOGAN 24","type":"PAYLOAD","l1":"1 40310U 14072A   26202.65258785  .00000027  00000-0  11672-4 0  9990","l2":"2 40310  98.1537 340.2858 0015110 149.5498 210.6592 14.76122046628803"},{"id":"40336","name":"CBERS-4","type":"PAYLOAD","l1":"1 40336U 14079A   26202.60926933  .00000341  00000-0  13335-3 0  9993","l2":"2 40336  98.3509 258.3576 0000575  74.6519 285.4730 14.35518231608890"},{"id":"40362","name":"YAOGAN 26","type":"PAYLOAD","l1":"1 40362U 14088A   26202.58716627  .00016279  00000-0  30631-3 0  9991","l2":"2 40362  97.0660 202.0235 0001055 285.4467  74.6668 15.48619000643022"},{"id":"40376","name":"SMAP","type":"PAYLOAD","l1":"1 40376U 15003A   26202.60961285  .00000285  00000-0  64260-4 0  9995","l2":"2 40376  98.1287 209.2183 0001633  92.4865 267.6524 14.63392770612653"},{"id":"40536","name":"KOMPSAT 3A","type":"PAYLOAD","l1":"1 40536U 15014A   26202.60818113  .00028882  00000-0  39253-3 0  9992","l2":"2 40536  97.6903 196.5343 0055298  53.0211 307.6086 15.55709945627168"},{"id":"40697","name":"SENTINEL 2A","type":"PAYLOAD","l1":"1 40697U 15028A   26202.62030285  .00000257  00000-0  11465-3 0  9994","l2":"2 40697  98.5668 276.9811 0001324  96.2802 263.8532 14.30816331578651"},{"id":"40701","name":"GAOFEN 8","type":"PAYLOAD","l1":"1 40701U 15030A   26202.63831697  .00018532  00000-0  36662-3 0  9991","l2":"2 40701  97.6901  38.1059 0009759  76.4314 283.8022 15.47109471616778"},{"id":"40718","name":"CARBONITE 1","type":"PAYLOAD","l1":"1 40718U 15032D   26202.64610589  .00000954  00000-0  12151-3 0  9993","l2":"2 40718  97.6532  19.2744 0014502 175.5109 184.6239 14.83678072594457"},{"id":"40878","name":"YAOGAN 27","type":"PAYLOAD","l1":"1 40878U 15040A   26202.61801214  .00000358  00000-0  10540-2 0  9990","l2":"2 40878 100.1183 187.5096 0008736 130.8638 229.3234 13.16073392522191"},{"id":"40894","name":"GAOFEN 9","type":"PAYLOAD","l1":"1 40894U 15047A   26202.61038188  .00000705  00000-0  92592-4 0  9992","l2":"2 40894  97.6263 236.7393 0027998  30.1449 330.1369 14.82943256585297"},{"id":"41026","name":"YAOGAN 28","type":"PAYLOAD","l1":"1 41026U 15064A   26202.64633705  .00006569  00000-0  24407-3 0  9991","l2":"2 41026  97.3114 340.2239 0011915  73.1114 287.1431 15.27814675595941"},{"id":"41038","name":"YAOGAN 29","type":"PAYLOAD","l1":"1 41038U 15069A   26202.58622302  .00000878  00000-0  11437-3 0  9999","l2":"2 41038  98.0022 231.2717 0000128  49.1787 310.9437 14.83112090575721"},{"id":"41167","name":"KENT RIDGE 1","type":"PAYLOAD","l1":"1 41167U 15077B   26202.60676954  .00002858  00000-0  85721-4 0  9994","l2":"2 41167  14.9808   9.9724 0008271   5.2414 354.7994 15.23307286586351"},{"id":"41194","name":"GAOFEN 4","type":"PAYLOAD","l1":"1 41194U 15083A   26202.59970685 -.00000333  00000-0  00000+0 0  9996","l2":"2 41194   0.4439  83.8614 0004162 121.1097  55.9718  1.00270335 38877"},{"id":"41240","name":"JASON 3","type":"PAYLOAD","l1":"1 41240U 16002A   26202.56585718 -.00000053  00000-0  37415-4 0  9990","l2":"2 41240  66.0416  53.5578 0008130 270.2651  89.7436 12.87628907491678"},{"id":"41335","name":"SENTINEL 3A","type":"PAYLOAD","l1":"1 41335U 16011A   26202.58017934  .00000041  00000-0  35166-4 0  9994","l2":"2 41335  98.6232 269.4668 0001303  88.7627 271.3703 14.26740972542965"},{"id":"41556","name":"ZY 3 2","type":"PAYLOAD","l1":"1 41556U 16033A   26202.78664169  .00004790  00000-0  21769-3 0  9991","l2":"2 41556  97.3820 277.8957 0013441 165.0237 195.1400 15.21145198563241"},{"id":"41599","name":"CARTOSAT 2C","type":"PAYLOAD","l1":"1 41599U 16040A   26202.63917965  .00005564  00000-0  26660-3 0  9990","l2":"2 41599  97.4462 262.1398 0008945  24.7765 335.3897 15.19297183558945"}]}